C/2019 M3 (ATLAS),e,99.6579,155.0578,87.9355,5063,0.0000027,0.99952110,0.0000,12/31.4716/2018,2000,g 12.2,4.0
# From MPEC 2023-JA2
C/2019 M4 (TESS),h,09/09.4268/2019,65.6928,52.6413,260.3384,1.000241,9.191038,2000,5.0,4.0
# From MPEC 2023-C45
C/2019 N1 (ATLAS),e,82.5390,13.5086,193.3423,960.3701,0.0000331,0.99822672,0.0000,11/30.4898/2020,2000,g  7.5,4.0
# From MPEC 2023-CD8
A/2019 N2,e,89.3194,276.2261,347.0602,1116,0.0000265,0.99826137,0.0000,08/22.4145/2019,2000,g 12.5,2.0
# From MPEC 2022-A21
C/2019 NJ3 (Lemmon),h,10/22.1859/2020,99.3313,142.4926,246.8700,1.001385,4.362919,2000,9.0,4.0
# From MPC185656
C/2019 O2 (PANSTARRS),e,93.2981,48.2633,129.5731,58.76873,0.0021877,0.83527298,1.8682,08/07.0/2025,2000,g  5.0,4.0
# From MPC182878
C/2019 O3 (Palomar),h,03/08.3016/2021,89.7949,300.4780,60.0975,1.002593,8.820679,2000,3.5,4.0
# From MPEC 2021-P47
A/2019 O4,e,114.9991,354.9258,61.8200,33.22384,0.0051467,0.89037943,10.3133,08/07.0/2025,2000,g 15.5,2.0
# From MPEC 2024-EF7
C/2019 Q1 (Lemmon),h,07/22.2528/2020,155.7201,42.4680,56.2542,1.002434,5.002419,2000,8.5,4.0
# From MPC117072
A/2019 Q2,e,158.9678,188.1314,176.5125,58.80980,0.0021854,0.97856660,0.0000,07/23.7556/2019,2000,g 18.0,2.0
# From MPC117072
P/2019 S2 (PANSTARRS),e,10.4636,93.1799,216.9205,4.747527,0.0952803,0.20467334,225.2487,08/07.0/2025,2000,g 13.5,4.0
# From MPEC 2022-CN4
P/2019 S3 (PANSTARRS),e,8.6941,150.1403,213.0982,3.414274,0.1562271,0.47072876,339.0386,08/07.0/2025,2000,g 18.3,4.0
# From MPEC 2021-S45
C/2019 S4 (Lemmon),e,92.0937,63.1554,71.3700,249.4411,0.0002502,0.98621371,0.0000,04/09.4632/2020,2000,g 11.0,4.0
# From MPEC 2023-N01
A/2019 T1,e,120.8174,6.9284,90.9768,38.74503,0.0040868,0.88967817,6.8048,08/07.0/2025,2000,g 13.0,2.0
# From MPEC 2023-R20
C/2019 T2 (Lemmon),e,111.3667,155.6542,239.3837,3319,0.0000052,0.99920356,0.0000,04/22.4905/2021,2000,g  9.0,4.0
# From MPEC 2023-UR6
C/2019 T3 (ATLAS),e,121.8769,139.5447,112.4904,4761,0.0000030,0.99874961,0.0000,03/04.7660/2021,2000,g  6.8,4.0
# From MPC182878
C/2019 T4 (ATLAS),e,53.6245,199.8986,351.1078,880.0676,0.0000378,0.99518524,0.0000,06/08.6676/2022,2000,g  5.0,4.0
# From MPEC 2021-P47
P/2019 T5 (ATLAS),e,33.4920,247.6129,189.6270,8.008121,0.0434919,0.80976782,95.4863,08/07.0/2025,2000,g 15.0,4.0
# From MPEC 2021-P47
P/2019 T6 (PANSTARRS),e,18.6983,71.2483,329.0609,5.443044,0.0776142,0.62241248,162.8451,08/07.0/2025,2000,g 15.5,4.0
# From MPC118096
P/2019 U4 (PANSTARRS),e,11.6954,200.0003,181.0859,3.518693,0.1493248,0.47573072,320.4989,08/07.0/2025,2000,g 19.0,4.0
# From MPC185656
C/2019 U5 (PANSTARRS),h,03/29.4174/2023,113.5127,2.6107,181.4479,1.000128,3.624288,2000,4.5,4.0
# From MPEC 2022-H04
C/2019 U6 (Lemmon),e,60.9890,235.7452,329.4261,302.9032,0.0001870,0.99700843,0.0000,06/18.3288/2020,2000,g 10.0,4.0
# From MPEC 2022-N37
C/2019 V1 (Borisov),e,61.9484,83.1481,51.1951,2720,0.0000069,0.99886312,0.0000,07/17.6378/2020,2000,g 11.0,4.0
# From MPEC 2022-L66
P/2019 V2 (Groeller),e,11.8070,189.1348,335.6334,7.494736,0.0480363,0.33191852,84.2886,08/07.0/2025,2000,g 10.0,4.0
# From MPEC 2023-A50
P/2019 W1 (PANSTARRS),e,23.4661,35.3600,18.8969,4.548476,0.1016027,0.26718551,231.5367,08/07.0/2025,2000,g 12.9,4.0
# From MPEC 2021-P47
P/2019 X1 (Pruyne),e,10.2453,43.6764,36.9989,6.179680,0.0641586,0.30381279,141.4829,08/07.0/2025,2000,g 10.4,4.0
# From MPEC 2020-C98
P/2019 X2 (Pan-STARRS),e,15.8946,250.8300,213.5210,3.633953,0.1422772,0.50048832,293.8001,08/07.0/2025,2000,g 18.0,4.0
# From MPC119999
C/2019 Y1 (ATLAS),e,73.2705,31.4714,57.9165,88.23784,0.0011891,0.99063538,0.0000,03/17.2463/2020,2000,g 13.7,4.0
# From MPEC 2024-A43
C/2019 Y4 (ATLAS),e,44.9246,120.7956,177.4072,328.8726,0.0001653,0.99921767,0.0000,05/29.5763/2020,2000,g 11.8,6.0
# From MPEC 2020-L06
C/2019 Y4-A (ATLAS),h,05/29.6318/2020,45.3589,121.1637,177.2392,1.001360,0.255441,2000,11.6,6.0
# From MPEC 2025-CE3
C/2019 Y4-B (ATLAS),e,45.0058,120.8589,177.3662,1330,0.0000203,0.99980680,0.0000,05/29.5853/2020,2000,g 12.1,6.0
# From MPEC 2020-L06
C/2019 Y4-C (ATLAS),h,05/29.5859/2020,45.1428,120.8910,177.2719,1.002089,0.256513,2000,12.7,6.0
# From MPEC 2020-L06
C/2019 Y4-D (ATLAS),e,45.1961,121.2521,177.4153,67.23685,0.0017877,0.99619497,0.0000,05/29.6677/2020,2000,g 12.5,6.0
# From MPEC 2023-A50
C/2019 Y5 (PANSTARRS),e,82.7757,51.7688,303.6691,685.4673,0.0000549,0.99280123,0.0000,08/16.4999/2019,2000,g 11.0,4.0
# From MPEC 2023-A50
A/2020 A1,e,149.0315,119.0586,302.4008,25.46125,0.0076716,0.93432787,15.9331,08/07.0/2025,2000,g 18.0,2.0
# From MPEC 2022-YN2
C/2020 A2 (Iwamoto),e,120.5019,286.1857,68.0139,953.5025,0.0000335,0.99897701,0.0000,01/07.0239/2020,2000,g 13.5,4.0
# From MPEC 2023-A50
C/2020 A3 (ATLAS),e,146.6194,120.7979,268.2315,4672,0.0000031,0.99876866,0.0000,06/26.7420/2019,2000,g  8.0,4.0
# From MPEC 2022-P91
P/2020 A4 (PANSTARRS-Lemmon),e,25.0035,312.2772,144.9120,8.203311,0.0419489,0.65447140,87.3576,08/07.0/2025,2000,g 15.0,4.0
# From MPEC 2020-N08
A/2020 B1,e,18.5416,309.7967,154.8881,52.11658,0.0026196,0.96662606,5.3684,08/07.0/2025,2000,g 21.0,2.0
# From MPEC 2020-HN5
C/2020 B2 (Lemmon),e,55.7555,354.1708,143.6321,67.91583,0.0017610,0.95942092,3.5548,08/07.0/2025,2000,g 10.0,4.0
# From MPEC 2022-N37
C/2020 B3 (Rankin),e,20.7068,185.7403,324.9355,1060,0.0000286,0.99686179,0.0000,10/20.8574/2019,2000,g 13.0,4.0
# From MPEC 2023-KD6
P/2020 B4 (Sheppard),e,11.6028,185.9467,342.0568,7.973662,0.0437741,0.19293552,59.3826,08/07.0/2025,2000,g 10.5,4.0
# From MPEC 2025-OF9
C/2020 F2 (ATLAS),h,07/12.4248/2022,163.5897,250.3004,48.2342,1.002454,8.813483,2000,4.5,4.0
# From MPEC 2021-O56
C/2020 F3 (NEOWISE),e,129.1089,61.0742,37.3438,403.5506,0.0001216,0.99927306,0.0000,07/04.9945/2020,2000,g  7.5,5.2
# From MPEC 2024-UQ8
C/2020 F5 (MASTER),e,52.2339,350.5450,310.6118,163.9218,0.0004696,0.97360907,0.0000,03/16.1299/2021,2000,g  6.5,3.2
# From MPEC 2020-L06
C/2020 F6 (PANSTARRS),e,174.5843,207.8363,344.3254,340.0571,0.0001572,0.98971339,0.0000,04/10.2442/2020,2000,g 14.5,2.8
# From MPEC 2024-A43
C/2020 F7 (Lemmon),e,93.9843,321.8204,227.9862,572.8970,0.0000719,0.99068747,0.0000,11/13.8966/2021,2000,g  7.0,4.0
# From MPEC 2023-J29
C/2020 F8 (SWAN),h,05/25.7520/2020,110.5568,259.8032,68.1152,1.000062,0.432915,2000,10.0,4.0
# From MPEC 2020-L06
P/2020 G1 (Pimentel),e,18.5067,240.0972,207.6508,3.606420,0.1439095,0.86081991,282.9683,08/07.0/2025,2000,g 17.0,4.0
# From MPEC 2022-YB4
C/2020 H2 (Pruyne),e,124.7760,277.6715,26.5823,176.5948,0.0004200,0.99530881,0.0000,04/26.8141/2020,2000,g 14.0,3.2
# From MPEC 2020-HM1
C/2020 H3 (Wierzchos),p,06/05.7162/2020,62.5292,30.4456,2.300288,270.6227,2000,13.5,4.0
# From MPEC 2020-L06
C/2020 H4 (Leonard),e,84.4948,307.4477,117.5818,47.85145,0.0029776,0.98061190,0.0000,08/29.1948/2020,2000,g 15.0,3.2
# From MPC184409
C/2020 H5 (Robinson),e,70.2269,210.6134,326.2641,6090,0.0000021,0.99846714,0.0000,12/09.9594/2020,2000,g  5.0,4.0
# From MPEC 2024-JU4
C/2020 H6 (ATLAS),e,79.9900,213.6897,20.1890,1943,0.0000115,0.99758238,0.0000,09/29.5358/2021,2000,g  8.0,3.2
# From MPEC 2020-KB7
C/2020 H7 (Lemmon),e,135.9235,323.5194,82.6780,1405,0.0000187,0.99685380,0.0000,06/02.9510/2020,2000,g 11.0,4.0
# From MPEC 2021-N06
C/2020 H8 (PANSTARRS),e,99.7023,68.4377,128.8132,589.4926,0.0000689,0.99209022,0.0000,06/04.8115/2020,2000,g 10.5,4.0
# From MPEC 2022-ED3
A/2020 H9,e,137.8734,213.1143,312.6099,340.2124,0.0001571,0.99247068,0.0000,12/21.7620/2019,2000,g 18.0,2.0
# From MPEC 2023-HN7
C/2020 H11 (PANSTARRS-Lemmon),e,151.3725,303.0574,91.3624,20264,0.0000003,0.99962392,0.0000,09/12.4222/2020,2000,g  8.5,4.0
# From MPEC 2023-KD6
C/2020 J1 (SONEAR),e,142.3074,226.5836,341.5721,8512,0.0000013,0.99960703,0.0000,04/17.9903/2021,2000,g  8.5,3.2
# From MPC184409
C/2020 K1 (PANSTARRS),e,89.6708,94.3669,213.9698,2310,0.0000089,0.99866897,0.0000,05/08.7141/2023,2000,g  5.5,4.0
# From MPEC 2021-N06
C/2020 K2 (PANSTARRS),h,08/04.3020/2020,90.9877,288.4347,67.3075,1.000845,8.880283,2000,10.8,4.0
# From MPEC 2020-KF9
C/2020 K3 (Leonard),p,06/01.0032/2020,129.0152,64.4924,1.583069,28.3546,2000,14.5,4.0
# From MPEC 2020-L06
C/2020 K4 (PANSTARRS),e,125.5849,264.2749,308.7780,23.92123,0.0084242,0.92711475,16.6881,08/07.0/2025,2000,g 16.5,4.0
# From MPEC 2021-R75
C/2020 K5 (PANSTARRS),h,06/04.1735/2021,67.0679,86.1413,249.6428,1.000782,1.540901,2000,11.0,4.0
# From MPEC 2023-N01
C/2020 K6 (Rankin),h,09/14.6577/2021,103.6296,291.6005,44.2743,1.002035,5.865954,2000,8.0,4.0
# From MPEC 2023-A50
C/2020 K7 (PANSTARRS),e,32.0443,286.1338,358.0719,94.50723,0.0010728,0.93240927,2.2666,08/07.0/2025,2000,g  8.0,4.0
# From MPEC 2021-P47
C/2020 K8 (Catalina-ATLAS),h,09/15.7392/2020,31.3768,181.2864,260.1764,1.000324,0.471592,2000,15.0,3.2
# From MPEC 2021-BE3
P/2020 K9 (Lemmon-PANSTARRS),e,23.1896,166.3103,197.0893,4.207482,0.1142012,0.32009051,187.0544,08/07.0/2025,2000,g 12.5,4.0
# From MPEC 2023-C45
P/2020 M1 (PANSTARRS),e,8.5346,142.6164,72.4853,5.311597,0.0805131,0.47357793,165.3565,08/07.0/2025,2000,g 14.5,4.0
# From MPEC 2022-H30
C/2020 M3 (ATLAS),e,23.4699,71.1781,328.6733,27.30953,0.0069061,0.95329292,12.0600,08/07.0/2025,2000,g 14.5,4.0
# From MPEC 2023-N01
A/2020 M4,e,160.1014,348.6134,104.4730,17487,0.0000004,0.99966030,0.0000,11/22.6936/2020,2000,g 14.5,2.0
# From MPEC 2024-NE4
P/2020 MK4 (PANSTARRS),e,6.7813,0.6624,93.6657,6.224584,0.0634656,0.01520311,320.5854,08/07.0/2025,2000,g  8.0,4.0
# From MPEC 2023-FK0
C/2020 M5 (ATLAS),h,08/19.7375/2021,93.1716,352.0149,126.2444,1.000108,2.999878,2000,9.0,4.0
# From MPEC 2022-GA9
C/2020 N1 (PANSTARRS),h,03/13.1805/2021,29.7673,279.8553,186.8398,1.000880,1.317688,2000,12.5,4.0
# From MPEC 2021-P47
C/2020 N2 (ATLAS),e,161.0388,257.1787,331.1948,101.2229,0.0009678,0.98238090,0.0000,08/24.3115/2020,2000,g 16.0,3.2
# From MPEC 2024-JU4
C/2020 O2 (Amaral),e,71.7624,256.7910,10.1676,10325,0.0000009,0.99952966,0.0000,08/27.2198/2021,2000,g  8.0,3.2
# From MPEC 2023-C45
